STARLINK-36318          
1 68048U 26041J   26066.16670139 -.01487078  68356-3 -28468-2 0  9990
2 68048  53.1602  75.1724 0000394  84.9653 282.8782 15.99967229  1975
STARLINK-36885          
1 68049U 26041K   26066.16670139 -.01478395  67820-3 -27877-2 0  9991
2 68049  53.1600  75.1666 0000565  73.4283 297.2424 16.00229883  1974
STARLINK-36945          
1 68050U 26041L   26066.16670139 -.01484210  68214-3 -28195-2 0  9998
2 68050  53.1601  75.1695 0000413  75.2002 294.0849 16.00101603  1975
STARLINK-35911          
1 68051U 26041M   26066.16670139 -.01492398  69115-3 -27907-2 0  9996
2 68051  53.1602  75.1638 0000466  80.5413 291.6092 16.00377722  1933
STARLINK-35808          
1 68052U 26041N   26066.16670139 -.01498194  69704-3 -27815-2 0  9999
2 68052  53.1599  75.1608 0000471  71.4583 301.9705 16.00503221  1930
STARLINK-36919          
1 68053U 26041P   26066.16670139 -.01489832  69089-3 -27454-2 0  9994
2 68053  53.1601  75.1579 0000453  78.7050 296.1365 16.00631681  1974
STARLINK-36924          
1 68054U 26041Q   26066.16670139 -.01459177  66664-3 -26545-2 0  9990
2 68054  53.1600  75.1531 0000593  69.9176 307.3791 16.00849459  1970
STARLINK-35998          
1 68055U 26041R   26066.16670139 -.01494022  69534-3 -27350-2 0  9993
2 68055  53.1601  75.1553 0000453  76.2431 299.7668 16.00746562  1930
STARLINK-36845          
1 68056U 26041S   26066.16670139 -.01476789  68243-3 -26671-2 0  9995
2 68056  53.1599  75.1505 0000404  78.9711 299.5653 16.00978192  1972
STARLINK-36954          
1 68057U 26041T   26066.16670139 -.01478565  68486-3 -26517-2 0  9998
2 68057  53.1600  75.1478 0000478  72.6387 307.1729 16.01099371  1970
STARLINK-36899          
1 68058U 26041U   26066.16670139 -.01469305  67775-3 -26197-2 0  9995
2 68058  53.1601  75.1458 0000444  75.7902 305.0982 16.01198498  1978
STARLINK-36917          
1 68059U 26041V   26066.16670139 -.01467405  67717-3 -25957-2 0  9994
2 68059  53.1599  75.1429 0000517  81.5365 300.8117 16.01334017  1974
STARLINK-36959          
1 68060U 26041W   26066.16670139 -.01446125  65998-3 -25431-2 0  9998
2 68060  53.1599  75.1401 0000474  70.5952 312.8713 16.01431304  1970
STARLINK-36915          
1 68061U 26041X   26066.16670139 -.01461432  67380-3 -25514-2 0  9996
2 68061  53.1600  75.1376 0000449  83.2524 301.4876 16.01558805  1973
STARLINK-36952          
1 68062U 26041Y   26066.16670139 -.01442812  65902-3 -25010-2 0  9997
2 68062  53.1601  75.1350 0000517  76.5162 309.6005 16.01678044  1978
STARLINK-37000          
1 68063U 26041Z   26066.16670139 -.01456815  67184-3 -25050-2 0  9994
2 68063  53.1600  75.1318 0000488  76.4209 311.0857 16.01817964  1978
