[{"OBJECT_NAME":"STARLINK-36318","OBJECT_ID":"2026-041J","EPOCH":"2026-03-07T04:00:03.000096","MEAN_MOTION":15.99967229,"ECCENTRICITY":3.94e-5,"INCLINATION":53.1602,"RA_OF_ASC_NODE":75.1724,"ARG_OF_PERICENTER":84.9653,"MEAN_ANOMALY":282.8782,"EPHEMERIS_TYPE":0,"CLASSIFICATION_TYPE":"U","NORAD_CAT_ID":68048,"ELEMENT_SET_NO":999,"REV_AT_EPOCH":197,"BSTAR":-0.0028468,"MEAN_MOTION_DOT":-0.01487078,"MEAN_MOTION_DDOT":0.00068356},{"OBJECT_NAME":"STARLINK-36885","OBJECT_ID":"2026-041K","EPOCH":"2026-03-07T04:00:03.000096","MEAN_MOTION":16.00229883,"ECCENTRICITY":5.65e-5,"INCLINATION":53.16,"RA_OF_ASC_NODE":75.1666,"ARG_OF_PERICENTER":73.4283,"MEAN_ANOMALY":297.2424,"EPHEMERIS_TYPE":0,"CLASSIFICATION_TYPE":"U","NORAD_CAT_ID":68049,"ELEMENT_SET_NO":999,"REV_AT_EPOCH":197,"BSTAR":-0.0027877,"MEAN_MOTION_DOT":-0.01478395,"MEAN_MOTION_DDOT":0.0006782},{"OBJECT_NAME":"STARLINK-36945","OBJECT_ID":"2026-041L","EPOCH":"2026-03-07T04:00:03.000096","MEAN_MOTION":16.00101603,"ECCENTRICITY":4.13e-5,"INCLINATION":53.1601,"RA_OF_ASC_NODE":75.1695,"ARG_OF_PERICENTER":75.2002,"MEAN_ANOMALY":294.0849,"EPHEMERIS_TYPE":0,"CLASSIFICATION_TYPE":"U","NORAD_CAT_ID":68050,"ELEMENT_SET_NO":999,"REV_AT_EPOCH":197,"BSTAR":-0.0028195,"MEAN_MOTION_DOT":-0.0148421,"MEAN_MOTION_DDOT":0.00068214},{"OBJECT_NAME":"STARLINK-35911","OBJECT_ID":"2026-041M","EPOCH":"2026-03-07T04:00:03.000096","MEAN_MOTION":16.00377722,"ECCENTRICITY":4.66e-5,"INCLINATION":53.1602,"RA_OF_ASC_NODE":75.1638,"ARG_OF_PERICENTER":80.5413,"MEAN_ANOMALY":291.6092,"EPHEMERIS_TYPE":0,"CLASSIFICATION_TYPE":"U","NORAD_CAT_ID":68051,"ELEMENT_SET_NO":999,"REV_AT_EPOCH":193,"BSTAR":-0.0027907,"MEAN_MOTION_DOT":-0.01492398,"MEAN_MOTION_DDOT":0.00069115},{"OBJECT_NAME":"STARLINK-35808","OBJECT_ID":"2026-041N","EPOCH":"2026-03-07T04:00:03.000096","MEAN_MOTION":16.00503221,"ECCENTRICITY":4.71e-5,"INCLINATION":53.1599,"RA_OF_ASC_NODE":75.1608,"ARG_OF_PERICENTER":71.4583,"MEAN_ANOMALY":301.9705,"EPHEMERIS_TYPE":0,"CLASSIFICATION_TYPE":"U","NORAD_CAT_ID":68052,"ELEMENT_SET_NO":999,"REV_AT_EPOCH":193,"BSTAR":-0.0027815,"MEAN_MOTION_DOT":-0.01498194,"MEAN_MOTION_DDOT":0.00069704},{"OBJECT_NAME":"STARLINK-36919","OBJECT_ID":"2026-041P","EPOCH":"2026-03-07T04:00:03.000096","MEAN_MOTION":16.00631681,"ECCENTRICITY":4.53e-5,"INCLINATION":53.1601,"RA_OF_ASC_NODE":75.1579,"ARG_OF_PERICENTER":78.705,"MEAN_ANOMALY":296.1365,"EPHEMERIS_TYPE":0,"CLASSIFICATION_TYPE":"U","NORAD_CAT_ID":68053,"ELEMENT_SET_NO":999,"REV_AT_EPOCH":197,"BSTAR":-0.0027454,"MEAN_MOTION_DOT":-0.01489832,"MEAN_MOTION_DDOT":0.00069089},{"OBJECT_NAME":"STARLINK-36924","OBJECT_ID":"2026-041Q","EPOCH":"2026-03-07T04:00:03.000096","MEAN_MOTION":16.00849459,"ECCENTRICITY":5.93e-5,"INCLINATION":53.16,"RA_OF_ASC_NODE":75.1531,"ARG_OF_PERICENTER":69.9176,"MEAN_ANOMALY":307.3791,"EPHEMERIS_TYPE":0,"CLASSIFICATION_TYPE":"U","NORAD_CAT_ID":68054,"ELEMENT_SET_NO":999,"REV_AT_EPOCH":197,"BSTAR":-0.0026545,"MEAN_MOTION_DOT":-0.01459177,"MEAN_MOTION_DDOT":0.00066664},{"OBJECT_NAME":"STARLINK-35998","OBJECT_ID":"2026-041R","EPOCH":"2026-03-07T04:00:03.000096","MEAN_MOTION":16.00746562,"ECCENTRICITY":4.53e-5,"INCLINATION":53.1601,"RA_OF_ASC_NODE":75.1553,"ARG_OF_PERICENTER":76.2431,"MEAN_ANOMALY":299.7668,"EPHEMERIS_TYPE":0,"CLASSIFICATION_TYPE":"U","NORAD_CAT_ID":68055,"ELEMENT_SET_NO":999,"REV_AT_EPOCH":193,"BSTAR":-0.002735,"MEAN_MOTION_DOT":-0.01494022,"MEAN_MOTION_DDOT":0.00069534},{"OBJECT_NAME":"STARLINK-36845","OBJECT_ID":"2026-041S","EPOCH":"2026-03-07T04:00:03.000096","MEAN_MOTION":16.00978192,"ECCENTRICITY":4.04e-5,"INCLINATION":53.1599,"RA_OF_ASC_NODE":75.1505,"ARG_OF_PERICENTER":78.9711,"MEAN_ANOMALY":299.5653,"EPHEMERIS_TYPE":0,"CLASSIFICATION_TYPE":"U","NORAD_CAT_ID":68056,"ELEMENT_SET_NO":999,"REV_AT_EPOCH":197,"BSTAR":-0.0026671,"MEAN_MOTION_DOT":-0.01476789,"MEAN_MOTION_DDOT":0.00068243},{"OBJECT_NAME":"STARLINK-36954","OBJECT_ID":"2026-041T","EPOCH":"2026-03-07T04:00:03.000096","MEAN_MOTION":16.01099371,"ECCENTRICITY":4.78e-5,"INCLINATION":53.16,"RA_OF_ASC_NODE":75.1478,"ARG_OF_PERICENTER":72.6387,"MEAN_ANOMALY":307.1729,"EPHEMERIS_TYPE":0,"CLASSIFICATION_TYPE":"U","NORAD_CAT_ID":68057,"ELEMENT_SET_NO":999,"REV_AT_EPOCH":197,"BSTAR":-0.0026517,"MEAN_MOTION_DOT":-0.01478565,"MEAN_MOTION_DDOT":0.00068486},{"OBJECT_NAME":"STARLINK-36899","OBJECT_ID":"2026-041U","EPOCH":"2026-03-07T04:00:03.000096","MEAN_MOTION":16.01198498,"ECCENTRICITY":4.44e-5,"INCLINATION":53.1601,"RA_OF_ASC_NODE":75.1458,"ARG_OF_PERICENTER":75.7902,"MEAN_ANOMALY":305.0982,"EPHEMERIS_TYPE":0,"CLASSIFICATION_TYPE":"U","NORAD_CAT_ID":68058,"ELEMENT_SET_NO":999,"REV_AT_EPOCH":197,"BSTAR":-0.0026197,"MEAN_MOTION_DOT":-0.01469305,"MEAN_MOTION_DDOT":0.00067775},{"OBJECT_NAME":"STARLINK-36917","OBJECT_ID":"2026-041V","EPOCH":"2026-03-07T04:00:03.000096","MEAN_MOTION":16.01334017,"ECCENTRICITY":5.17e-5,"INCLINATION":53.1599,"RA_OF_ASC_NODE":75.1429,"ARG_OF_PERICENTER":81.5365,"MEAN_ANOMALY":300.8117,"EPHEMERIS_TYPE":0,"CLASSIFICATION_TYPE":"U","NORAD_CAT_ID":68059,"ELEMENT_SET_NO":999,"REV_AT_EPOCH":197,"BSTAR":-0.0025957,"MEAN_MOTION_DOT":-0.01467405,"MEAN_MOTION_DDOT":0.00067717},{"OBJECT_NAME":"STARLINK-36959","OBJECT_ID":"2026-041W","EPOCH":"2026-03-07T04:00:03.000096","MEAN_MOTION":16.01431304,"ECCENTRICITY":4.74e-5,"INCLINATION":53.1599,"RA_OF_ASC_NODE":75.1401,"ARG_OF_PERICENTER":70.5952,"MEAN_ANOMALY":312.8713,"EPHEMERIS_TYPE":0,"CLASSIFICATION_TYPE":"U","NORAD_CAT_ID":68060,"ELEMENT_SET_NO":999,"REV_AT_EPOCH":197,"BSTAR":-0.0025431,"MEAN_MOTION_DOT":-0.01446125,"MEAN_MOTION_DDOT":0.00065998},{"OBJECT_NAME":"STARLINK-36915","OBJECT_ID":"2026-041X","EPOCH":"2026-03-07T04:00:03.000096","MEAN_MOTION":16.01558805,"ECCENTRICITY":4.49e-5,"INCLINATION":53.16,"RA_OF_ASC_NODE":75.1376,"ARG_OF_PERICENTER":83.2524,"MEAN_ANOMALY":301.4876,"EPHEMERIS_TYPE":0,"CLASSIFICATION_TYPE":"U","NORAD_CAT_ID":68061,"ELEMENT_SET_NO":999,"REV_AT_EPOCH":197,"BSTAR":-0.0025514,"MEAN_MOTION_DOT":-0.01461432,"MEAN_MOTION_DDOT":0.0006738},{"OBJECT_NAME":"STARLINK-36952","OBJECT_ID":"2026-041Y","EPOCH":"2026-03-07T04:00:03.000096","MEAN_MOTION":16.01678044,"ECCENTRICITY":5.17e-5,"INCLINATION":53.1601,"RA_OF_ASC_NODE":75.135,"ARG_OF_PERICENTER":76.5162,"MEAN_ANOMALY":309.6005,"EPHEMERIS_TYPE":0,"CLASSIFICATION_TYPE":"U","NORAD_CAT_ID":68062,"ELEMENT_SET_NO":999,"REV_AT_EPOCH":197,"BSTAR":-0.002501,"MEAN_MOTION_DOT":-0.01442812,"MEAN_MOTION_DDOT":0.00065902},{"OBJECT_NAME":"STARLINK-37000","OBJECT_ID":"2026-041Z","EPOCH":"2026-03-07T04:00:03.000096","MEAN_MOTION":16.01817964,"ECCENTRICITY":4.88e-5,"INCLINATION":53.16,"RA_OF_ASC_NODE":75.1318,"ARG_OF_PERICENTER":76.4209,"MEAN_ANOMALY":311.0857,"EPHEMERIS_TYPE":0,"CLASSIFICATION_TYPE":"U","NORAD_CAT_ID":68063,"ELEMENT_SET_NO":999,"REV_AT_EPOCH":197,"BSTAR":-0.002505,"MEAN_MOTION_DOT":-0.01456815,"MEAN_MOTION_DDOT":0.00067184}]
